<?xml version="1.0" encoding="UTF-8"?>
<osm version="0.6" generator="test">
  <!-- Enhanced test OSM data for Lumsden area showing multiple feature types -->
  
  <!-- Nodes for various features -->
  <node id="1" lat="57.3167" lon="-2.8833"/>
  <node id="2" lat="57.3200" lon="-2.8800"/>
  <node id="3" lat="57.3150" lon="-2.8850"/>
  <node id="4" lat="57.3180" lon="-2.8820"/>
  <node id="5" lat="57.3140" lon="-2.8840"/>
  <node id="6" lat="57.3160" lon="-2.8830"/>
  <node id="7" lat="57.3190" lon="-2.8810"/>
  <node id="8" lat="57.3130" lon="-2.8860"/>
  <node id="9" lat="57.3170" lon="-2.8790"/>
  <node id="10" lat="57.3120" lon="-2.8870"/>
  <node id="11" lat="57.3210" lon="-2.8780"/>
  <node id="12" lat="57.3110" lon="-2.8880"/>
  <node id="13" lat="57.3220" lon="-2.8770"/>
  <node id="14" lat="57.3100" lon="-2.8890"/>
  <node id="15" lat="57.3230" lon="-2.8760"/>
  
  <!-- Major road -->
  <way id="100">
    <nd ref="1"/>
    <nd ref="2"/>
    <tag k="highway" v="primary"/>
    <tag k="name" v="A944"/>
  </way>
  
  <!-- Secondary road -->
  <way id="101">
    <nd ref="3"/>
    <nd ref="4"/>
    <tag k="highway" v="secondary"/>
    <tag k="name" v="B9119"/>
  </way>
  
  <!-- Residential road -->
  <way id="102">
    <nd ref="7"/>
    <nd ref="9"/>
    <tag k="highway" v="residential"/>
    <tag k="name" v="High Street"/>
  </way>
  
  <!-- Footpath -->
  <way id="103">
    <nd ref="8"/>
    <nd ref="10"/>
    <tag k="highway" v="footway"/>
    <tag k="name" v="River Walk"/>
  </way>
  
  <!-- Cycle path -->
  <way id="104">
    <nd ref="11"/>
    <nd ref="13"/>
    <tag k="highway" v="cycleway"/>
    <tag k="name" v="Cycle Route"/>
  </way>
  
  <!-- Forest area -->
  <way id="200">
    <nd ref="3"/>
    <nd ref="4"/>
    <nd ref="5"/>
    <nd ref="3"/>
    <tag k="landuse" v="forest"/>
    <tag k="name" v="Lumsden Wood"/>
  </way>
  
  <!-- Farmland area -->
  <way id="201">
    <nd ref="8"/>
    <nd ref="10"/>
    <nd ref="12"/>
    <nd ref="8"/>
    <tag k="landuse" v="farmland"/>
    <tag k="name" v="Hill Farm"/>
  </way>
  
  <!-- Park area -->
  <way id="202">
    <nd ref="11"/>
    <nd ref="13"/>
    <nd ref="15"/>
    <nd ref="11"/>
    <tag k="leisure" v="park"/>
    <tag k="name" v="Village Green"/>
  </way>
  
  <!-- Water body -->
  <way id="203">
    <nd ref="12"/>
    <nd ref="14"/>
    <nd ref="15"/>
    <nd ref="12"/>
    <tag k="natural" v="water"/>
    <tag k="name" v="Mill Pond"/>
  </way>
  
  <!-- Building -->
  <way id="300">
    <nd ref="1"/>
    <nd ref="6"/>
    <nd ref="7"/>
    <nd ref="1"/>
    <tag k="building" v="yes"/>
    <tag k="name" v="Village Hall"/>
  </way>
  
  <!-- River -->
  <way id="400">
    <nd ref="5"/>
    <nd ref="8"/>
    <nd ref="12"/>
    <tag k="waterway" v="river"/>
    <tag k="name" v="River Don"/>
  </way>
  
  <!-- Stream -->
  <way id="401">
    <nd ref="10"/>
    <nd ref="14"/>
    <tag k="waterway" v="stream"/>
    <tag k="name" v="Mill Burn"/>
  </way>
  
  <!-- Points of Interest -->
  <node id="500" lat="57.3160" lon="-2.8830">
    <tag k="amenity" v="restaurant"/>
    <tag k="name" v="Lumsden Inn"/>
  </node>
  
  <node id="501" lat="57.3170" lon="-2.8820">
    <tag k="tourism" v="attraction"/>
    <tag k="name" v="Historic Castle"/>
  </node>
  
  <node id="502" lat="57.3180" lon="-2.8840">
    <tag k="amenity" v="parking"/>
    <tag k="name" v="Village Car Park"/>
  </node>
  
  <node id="503" lat="57.3150" lon="-2.8810">
    <tag k="amenity" v="bank"/>
    <tag k="name" v="Clydesdale Bank"/>
  </node>
  
  <node id="504" lat="57.3190" lon="-2.8850">
    <tag k="place" v="village"/>
    <tag k="name" v="Lumsden"/>
  </node>
  
</osm>